OBJECT_NAME,OBJECT_ID,EPOCH,MEAN_MOTION,ECCENTRICITY,INCLINATION,RA_OF_ASC_NODE,ARG_OF_PERICENTER,MEAN_ANOMALY,EPHEMERIS_TYPE,CLASSIFICATION_TYPE,NORAD_CAT_ID,ELEMENT_SET_NO,REV_AT_EPOCH,BSTAR,MEAN_MOTION_DOT,MEAN_MOTION_DDOT
IRIDIUM 113,2017-039A,2026-07-13T19:43:55.118208,14.34217159,.0002014,86.3988,311.0464,90.6247,269.5180,0,U,42803,999,47500,-.38789E-5,.9E-7,0
NORSAT 2,2017-042D,2026-07-13T17:12:35.184096,15.22409796,.0008325,97.4047,7.7475,324.0395,36.0280,0,U,42828,999,49177,.23896E-3,.5457E-4,0
TECHNOSAT,2017-042E,2026-07-13T09:04:23.635776,15.05104462,.00175992,97.4311,351.0449,9.3532,350.8019,0,U,42829,999,49064,.14686669E-3,.2037E-4,0
FLYING LAPTOP,2017-042G,2026-07-13T20:19:46.401312,15.01308694,.0019757,97.4792,349.3759,36.8487,323.4091,0,U,42831,999,49045,.19107E-3,.241E-4,0
WNISAT 1R,2017-042L,2026-07-13T21:01:56.404128,15.01857109,.0011035,97.4822,350.0454,68.9178,291.3225,0,U,42835,999,49051,.45611E-4,.538E-5,0
LEMUR-2-GREENBERG,2017-042N,2026-07-13T11:30:25.424352,15.32118737,.00071612,97.3826,14.9999,266.6725,93.3697,0,U,42837,999,49241,.30775394E-3,.9474E-4,0
LEMUR-2-FURIAUS,2017-042R,2026-07-12T10:41:36.677760,15.31072029,.00062398,97.3775,11.8672,340.6601,19.4403,0,U,42840,999,49207,.35675373E-3,.10642E-3,0
CORVUS BC2,2017-042X,2026-07-13T18:22:07.809888,15.06452530,.0013579,97.4090,355.0880,27.8263,332.3689,0,U,42846,999,49106,.96345E-4,.1364E-4,0
CORVUS BC1,2017-042Y,2026-07-13T16:34:30.643680,15.06615457,.0011755,97.4116,355.8472,5.7954,354.3408,0,U,42847,999,49108,.73816E-4,.1035E-4,0
VRSS-2,2017-060A,2026-07-13T20:53:50.346240,14.81237517,.0017577,97.6507,231.3942,17.9701,342.2130,0,U,42954,999,47240,.10578E-3,.776E-5,0
MOHAMMED VI-A,2017-070A,2026-07-13T20:00:13.891104,14.77101796,.0001205,97.9556,266.7964,94.9725,265.1623,0,U,43005,999,46791,.77035E-4,.493E-5,0
FENGYUN 3D,2017-072A,2026-07-13T20:34:26.800896,14.19743445,.0001616,99.0135,169.7634,16.7072,343.4157,0,U,43010,999,44877,-.88609E-4,-.234E-5,0
NOAA 20 (JPSS-1),2017-073A,2026-07-13T20:33:30.327264,14.19516290,.0001337,98.7773,134.0829,125.7481,234.3819,0,U,43013,999,44825,.27535E-4,.14E-6,0
MAKERSAT 0,2017-073D,2026-07-13T14:58:38.311392,15.32968226,.0105364,97.4590,77.3600,177.8429,182.3290,0,U,43016,999,47051,.32412E-3,.12247E-3,0
RADFXSAT (FOX-1B),2017-073E,2026-07-13T14:21:04.317696,15.13047327,.0148173,97.4670,61.2749,237.0562,121.6348,0,U,43017,999,46938,.17078E-3,.3877E-4,0
JILIN-1 04,2017-074A,2026-07-13T19:24:22.145760,15.43106496,.0005274,97.4879,305.1453,104.1043,256.0791,0,U,43022,999,47837,.1936E-3,.8476E-4,0
JILIN-1 05,2017-074B,2026-07-13T20:44:59.557344,15.34272291,.0006403,97.4884,301.3883,128.2844,231.8976,0,U,43023,999,47809,.15397E-3,.5029E-4,0
JILIN-1 06,2017-074C,2026-07-13T20:09:56.024928,15.33986441,.0008011,97.4809,298.3376,138.1847,222.0009,0,U,43024,999,47792,.11124E-3,.3578E-4,0
IRIDIUM 116,2017-083C,2026-07-13T19:07:23.070720,14.34217419,.0002427,86.3984,310.8778,99.0489,261.0982,0,U,43072,999,44798,.34346E-4,.116E-5,0
IRIDIUM 130,2017-083D,2026-07-13T20:02:11.414112,14.34217605,.0002236,86.3992,311.1397,100.8684,259.2764,0,U,43073,999,44793,.39703E-4,.131E-5,0
LKW-2,2017-084A,2026-07-13T20:08:04.123968,15.26678584,.0003523,97.1182,233.3924,121.6865,238.4719,0,U,43080,999,47575,.15445E-3,.3985E-4,0
SUPERVIEW-1 03,2018-002A,2026-07-13T19:28:11.849664,15.40181231,.0047022,97.3138,279.6228,85.9536,274.7083,0,U,43099,999,47246,.26328E-3,.10902E-3,0
CARTOSAT-2F,2018-004A,2026-07-13T19:37:31.433952,15.19262449,.0002627,97.4783,254.1899,138.0769,222.0667,0,U,43111,999,47137,.60362E-4,.1204E-4,0
LKW-3,2018-006A,2026-07-13T20:06:14.872032,15.35739874,.0002825,97.6626,356.4659,184.5833,175.5385,0,U,43146,999,47280,.32388E-3,.11178E-3,0
ASNARO-2,2018-007A,2026-07-13T20:54:51.249600,15.22412722,.0001872,97.3968,201.3817,93.4924,266.6526,0,U,43152,999,47147,.22375E-3,.5102E-4,0
JILIN-1 07,2018-008E,2026-07-13T19:42:52.452288,15.35150226,.0006869,97.1764,214.0460,333.9945,26.0953,0,U,43159,999,46908,.15892E-3,.5347E-4,0
JILIN-1 08,2018-008F,2026-07-13T20:10:14.683872,15.34000730,.0005476,97.1800,213.3509,357.9141,2.2078,0,U,43160,999,46903,.11271E-3,.3632E-4,0
S-NET D,2018-014G,2026-07-13T17:13:58.897920,15.16909870,.0006342,97.5338,99.3442,291.3470,68.7086,0,U,43186,999,46278,.13164E-3,.2527E-4,0
